KUIPER-00053            
1 64513U 25134P   25231.82014981  .00034271  00000+0  93726-3 0  9996
2 64513  51.8779  53.9678 0001953 297.8324  62.2464 15.37045705  9605
KUIPER-00054            
1 64514U 25134Q   25231.76228029  .00031878  00000+0  87470-3 0  9999
2 64514  51.8761  54.3249 0003232 285.4765  74.5865 15.36975957  9993
KUIPER-00055            
1 64515U 25134R   25231.80318010  .00014005  00000+0  38418-3 0  9996
2 64515  51.8774  53.8591 0001153 242.1800 117.9070 15.37535969  9910
KUIPER-00056            
1 64516U 25134S   25231.77089041  .00026107  00000+0  72488-3 0  9993
2 64516  51.8726  54.3712 0003369 291.2228  68.8399 15.36714450  9594
KUIPER-00057            
1 64517U 25134T   25231.87810836  .00035980  00000+0  10677-2 0  9999
2 64517  51.8692  54.3139 0007679 318.5698  41.4704 15.34441824  9713
KUIPER-00058            
1 64518U 25134U   25231.78332014  .00033008  00000+0  92414-3 0  9996
2 64518  51.8727  54.4453 0005663 309.7668  50.2819 15.36321894  9590
KUIPER-00059            
1 64519U 25134V   25231.48137737  .00028410  00000+0  76850-3 0  9996
2 64519  51.8774  55.4476 0000972 300.9088  59.1803 15.37482048 10016
KUIPER-00060            
1 64520U 25134W   25231.74851890  .00016708  00000+0  45845-3 0  9997
2 64520  51.8782  54.2400 0002301 271.1026  88.9697 15.37380609  9592
