<?xml version="1.0" encoding="UTF-8"?>
<ndm xmlns:xsi="http://www.w3.org/2001/XMLSchema-instance" xsi:noNamespaceSchemaLocation="https://sanaregistry.org/r/ndmxml_unqualified/ndmxml-2.0.0-master-2.0.xsd">
<omm id="CCSDS_OMM_VERS" version="2.0">
<header><CREATION_DATE/><ORIGINATOR/></header><body><segment><metadata><OBJECT_NAME>KUIPER-00053</OBJECT_NAME><OBJECT_ID>2025-134P</OBJECT_ID><CENTER_NAME>EARTH</CENTER_NAME><REF_FRAME>TEME</REF_FRAME><TIME_SYSTEM>UTC</TIME_SYSTEM><MEAN_ELEMENT_THEORY>SGP4</MEAN_ELEMENT_THEORY></metadata><data><meanElements><EPOCH>2025-08-19T19:41:00.943584</EPOCH><MEAN_MOTION>15.37045705</MEAN_MOTION><ECCENTRICITY>.0001953</ECCENTRICITY><INCLINATION>51.8779</INCLINATION><RA_OF_ASC_NODE>53.9678</RA_OF_ASC_NODE><ARG_OF_PERICENTER>297.8324</ARG_OF_PERICENTER><MEAN_ANOMALY>62.2464</MEAN_ANOMALY></meanElements><tleParameters><EPHEMERIS_TYPE>0</EPHEMERIS_TYPE><CLASSIFICATION_TYPE>U</CLASSIFICATION_TYPE><NORAD_CAT_ID>64513</NORAD_CAT_ID><ELEMENT_SET_NO>999</ELEMENT_SET_NO><REV_AT_EPOCH>960</REV_AT_EPOCH><BSTAR>.93726E-3</BSTAR><MEAN_MOTION_DOT>.34271E-3</MEAN_MOTION_DOT><MEAN_MOTION_DDOT>0</MEAN_MOTION_DDOT></tleParameters></data></segment></body></omm>
<omm id="CCSDS_OMM_VERS" version="2.0">
<header><CREATION_DATE/><ORIGINATOR/></header><body><segment><metadata><OBJECT_NAME>KUIPER-00054</OBJECT_NAME><OBJECT_ID>2025-134Q</OBJECT_ID><CENTER_NAME>EARTH</CENTER_NAME><REF_FRAME>TEME</REF_FRAME><TIME_SYSTEM>UTC</TIME_SYSTEM><MEAN_ELEMENT_THEORY>SGP4</MEAN_ELEMENT_THEORY></metadata><data><meanElements><EPOCH>2025-08-19T18:17:41.017056</EPOCH><MEAN_MOTION>15.36975957</MEAN_MOTION><ECCENTRICITY>.0003232</ECCENTRICITY><INCLINATION>51.8761</INCLINATION><RA_OF_ASC_NODE>54.3249</RA_OF_ASC_NODE><ARG_OF_PERICENTER>285.4765</ARG_OF_PERICENTER><MEAN_ANOMALY>74.5865</MEAN_ANOMALY></meanElements><tleParameters><EPHEMERIS_TYPE>0</EPHEMERIS_TYPE><CLASSIFICATION_TYPE>U</CLASSIFICATION_TYPE><NORAD_CAT_ID>64514</NORAD_CAT_ID><ELEMENT_SET_NO>999</ELEMENT_SET_NO><REV_AT_EPOCH>999</REV_AT_EPOCH><BSTAR>.8747E-3</BSTAR><MEAN_MOTION_DOT>.31878E-3</MEAN_MOTION_DOT><MEAN_MOTION_DDOT>0</MEAN_MOTION_DDOT></tleParameters></data></segment></body></omm>
<omm id="CCSDS_OMM_VERS" version="2.0">
<header><CREATION_DATE/><ORIGINATOR/></header><body><segment><metadata><OBJECT_NAME>KUIPER-00055</OBJECT_NAME><OBJECT_ID>2025-134R</OBJECT_ID><CENTER_NAME>EARTH</CENTER_NAME><REF_FRAME>TEME</REF_FRAME><TIME_SYSTEM>UTC</TIME_SYSTEM><MEAN_ELEMENT_THEORY>SGP4</MEAN_ELEMENT_THEORY></metadata><data><meanElements><EPOCH>2025-08-19T19:16:34.760640</EPOCH><MEAN_MOTION>15.37535969</MEAN_MOTION><ECCENTRICITY>.0001153</ECCENTRICITY><INCLINATION>51.8774</INCLINATION><RA_OF_ASC_NODE>53.8591</RA_OF_ASC_NODE><ARG_OF_PERICENTER>242.1800</ARG_OF_PERICENTER><MEAN_ANOMALY>117.9070</MEAN_ANOMALY></meanElements><tleParameters><EPHEMERIS_TYPE>0</EPHEMERIS_TYPE><CLASSIFICATION_TYPE>U</CLASSIFICATION_TYPE><NORAD_CAT_ID>64515</NORAD_CAT_ID><ELEMENT_SET_NO>999</ELEMENT_SET_NO><REV_AT_EPOCH>991</REV_AT_EPOCH><BSTAR>.38418E-3</BSTAR><MEAN_MOTION_DOT>.14005E-3</MEAN_MOTION_DOT><MEAN_MOTION_DDOT>0</MEAN_MOTION_DDOT></tleParameters></data></segment></body></omm>
<omm id="CCSDS_OMM_VERS" version="2.0">
<header><CREATION_DATE/><ORIGINATOR/></header><body><segment><metadata><OBJECT_NAME>KUIPER-00056</OBJECT_NAME><OBJECT_ID>2025-134S</OBJECT_ID><CENTER_NAME>EARTH</CENTER_NAME><REF_FRAME>TEME</REF_FRAME><TIME_SYSTEM>UTC</TIME_SYSTEM><MEAN_ELEMENT_THEORY>SGP4</MEAN_ELEMENT_THEORY></metadata><data><meanElements><EPOCH>2025-08-19T18:30:04.931424</EPOCH><MEAN_MOTION>15.36714450</MEAN_MOTION><ECCENTRICITY>.0003369</ECCENTRICITY><INCLINATION>51.8726</INCLINATION><RA_OF_ASC_NODE>54.3712</RA_OF_ASC_NODE><ARG_OF_PERICENTER>291.2228</ARG_OF_PERICENTER><MEAN_ANOMALY>68.8399</MEAN_ANOMALY></meanElements><tleParameters><EPHEMERIS_TYPE>0</EPHEMERIS_TYPE><CLASSIFICATION_TYPE>U</CLASSIFICATION_TYPE><NORAD_CAT_ID>64516</NORAD_CAT_ID><ELEMENT_SET_NO>999</ELEMENT_SET_NO><REV_AT_EPOCH>959</REV_AT_EPOCH><BSTAR>.72488E-3</BSTAR><MEAN_MOTION_DOT>.26107E-3</MEAN_MOTION_DOT><MEAN_MOTION_DDOT>0</MEAN_MOTION_DDOT></tleParameters></data></segment></body></omm>
<omm id="CCSDS_OMM_VERS" version="2.0">
<header><CREATION_DATE/><ORIGINATOR/></header><body><segment><metadata><OBJECT_NAME>KUIPER-00057</OBJECT_NAME><OBJECT_ID>2025-134T</OBJECT_ID><CENTER_NAME>EARTH</CENTER_NAME><REF_FRAME>TEME</REF_FRAME><TIME_SYSTEM>UTC</TIME_SYSTEM><MEAN_ELEMENT_THEORY>SGP4</MEAN_ELEMENT_THEORY></metadata><data><meanElements><EPOCH>2025-08-19T21:04:28.562304</EPOCH><MEAN_MOTION>15.34441824</MEAN_MOTION><ECCENTRICITY>.0007679</ECCENTRICITY><INCLINATION>51.8692</INCLINATION><RA_OF_ASC_NODE>54.3139</RA_OF_ASC_NODE><ARG_OF_PERICENTER>318.5698</ARG_OF_PERICENTER><MEAN_ANOMALY>41.4704</MEAN_ANOMALY></meanElements><tleParameters><EPHEMERIS_TYPE>0</EPHEMERIS_TYPE><CLASSIFICATION_TYPE>U</CLASSIFICATION_TYPE><NORAD_CAT_ID>64517</NORAD_CAT_ID><ELEMENT_SET_NO>999</ELEMENT_SET_NO><REV_AT_EPOCH>971</REV_AT_EPOCH><BSTAR>.10677E-2</BSTAR><MEAN_MOTION_DOT>.3598E-3</MEAN_MOTION_DOT><MEAN_MOTION_DDOT>0</MEAN_MOTION_DDOT></tleParameters></data></segment></body></omm>
<omm id="CCSDS_OMM_VERS" version="2.0">
<header><CREATION_DATE/><ORIGINATOR/></header><body><segment><metadata><OBJECT_NAME>KUIPER-00058</OBJECT_NAME><OBJECT_ID>2025-134U</OBJECT_ID><CENTER_NAME>EARTH</CENTER_NAME><REF_FRAME>TEME</REF_FRAME><TIME_SYSTEM>UTC</TIME_SYSTEM><MEAN_ELEMENT_THEORY>SGP4</MEAN_ELEMENT_THEORY></metadata><data><meanElements><EPOCH>2025-08-19T18:47:58.860096</EPOCH><MEAN_MOTION>15.36321894</MEAN_MOTION><ECCENTRICITY>.0005663</ECCENTRICITY><INCLINATION>51.8727</INCLINATION><RA_OF_ASC_NODE>54.4453</RA_OF_ASC_NODE><ARG_OF_PERICENTER>309.7668</ARG_OF_PERICENTER><MEAN_ANOMALY>50.2819</MEAN_ANOMALY></meanElements><tleParameters><EPHEMERIS_TYPE>0</EPHEMERIS_TYPE><CLASSIFICATION_TYPE>U</CLASSIFICATION_TYPE><NORAD_CAT_ID>64518</NORAD_CAT_ID><ELEMENT_SET_NO>999</ELEMENT_SET_NO><REV_AT_EPOCH>959</REV_AT_EPOCH><BSTAR>.92414E-3</BSTAR><MEAN_MOTION_DOT>.33008E-3</MEAN_MOTION_DOT><MEAN_MOTION_DDOT>0</MEAN_MOTION_DDOT></tleParameters></data></segment></body></omm>
<omm id="CCSDS_OMM_VERS" version="2.0">
<header><CREATION_DATE/><ORIGINATOR/></header><body><segment><metadata><OBJECT_NAME>KUIPER-00059</OBJECT_NAME><OBJECT_ID>2025-134V</OBJECT_ID><CENTER_NAME>EARTH</CENTER_NAME><REF_FRAME>TEME</REF_FRAME><TIME_SYSTEM>UTC</TIME_SYSTEM><MEAN_ELEMENT_THEORY>SGP4</MEAN_ELEMENT_THEORY></metadata><data><meanElements><EPOCH>2025-08-19T11:33:11.004768</EPOCH><MEAN_MOTION>15.37482048</MEAN_MOTION><ECCENTRICITY>.0000972</ECCENTRICITY><INCLINATION>51.8774</INCLINATION><RA_OF_ASC_NODE>55.4476</RA_OF_ASC_NODE><ARG_OF_PERICENTER>300.9088</ARG_OF_PERICENTER><MEAN_ANOMALY>59.1803</MEAN_ANOMALY></meanElements><tleParameters><EPHEMERIS_TYPE>0</EPHEMERIS_TYPE><CLASSIFICATION_TYPE>U</CLASSIFICATION_TYPE><NORAD_CAT_ID>64519</NORAD_CAT_ID><ELEMENT_SET_NO>999</ELEMENT_SET_NO><REV_AT_EPOCH>1001</REV_AT_EPOCH><BSTAR>.7685E-3</BSTAR><MEAN_MOTION_DOT>.2841E-3</MEAN_MOTION_DOT><MEAN_MOTION_DDOT>0</MEAN_MOTION_DDOT></tleParameters></data></segment></body></omm>
<omm id="CCSDS_OMM_VERS" version="2.0">
<header><CREATION_DATE/><ORIGINATOR/></header><body><segment><metadata><OBJECT_NAME>KUIPER-00060</OBJECT_NAME><OBJECT_ID>2025-134W</OBJECT_ID><CENTER_NAME>EARTH</CENTER_NAME><REF_FRAME>TEME</REF_FRAME><TIME_SYSTEM>UTC</TIME_SYSTEM><MEAN_ELEMENT_THEORY>SGP4</MEAN_ELEMENT_THEORY></metadata><data><meanElements><EPOCH>2025-08-19T17:57:52.032960</EPOCH><MEAN_MOTION>15.37380609</MEAN_MOTION><ECCENTRICITY>.0002301</ECCENTRICITY><INCLINATION>51.8782</INCLINATION><RA_OF_ASC_NODE>54.2400</RA_OF_ASC_NODE><ARG_OF_PERICENTER>271.1026</ARG_OF_PERICENTER><MEAN_ANOMALY>88.9697</MEAN_ANOMALY></meanElements><tleParameters><EPHEMERIS_TYPE>0</EPHEMERIS_TYPE><CLASSIFICATION_TYPE>U</CLASSIFICATION_TYPE><NORAD_CAT_ID>64520</NORAD_CAT_ID><ELEMENT_SET_NO>999</ELEMENT_SET_NO><REV_AT_EPOCH>959</REV_AT_EPOCH><BSTAR>.45845E-3</BSTAR><MEAN_MOTION_DOT>.16708E-3</MEAN_MOTION_DOT><MEAN_MOTION_DDOT>0</MEAN_MOTION_DDOT></tleParameters></data></segment></body></omm>

</ndm>
